EUTELSAT 7A             
1 28187U 04008A   25326.47596987  .00000123  00000+0  00000+0 0  9995
2 28187   5.3042  74.4794 0000749 160.8402 218.5434  1.00270956 79281
EUTELSAT 174A           
1 28924U 05052A   25326.58378104  .00000030  00000+0  00000+0 0  9992
2 28924   3.6943  79.0877 0006083 160.8170 206.1212  1.00269729 50263
EUTELSAT HOTBIRD 13B    
1 29270U 06032A   25326.52177395  .00000177  00000+0  00000+0 0  9991
2 29270   1.1255  84.5406 0003296 154.3186  43.8558  1.00274417 45234
EUTELSAT HOTBIRD 13C    
1 33459U 08065A   25326.43762008 -.00000223  00000+0  00000+0 0  9997
2 33459   2.4165  81.6398 0000821 125.9239 340.3981  1.00053472 45279
EUTELSAT 36B            
1 36101U 09065A   25326.52524063  .00000134  00000+0  00000+0 0  9992
2 36101   0.0414 354.9976 0005873 245.7503  60.6254  1.00270002 58631
EUTELSAT KA-SAT 9A      
1 37258U 10069A   25326.51683391  .00000083  00000+0  00000+0 0  9994
2 37258   0.0578 320.8822 0002281 225.0390  70.9379  1.00269221 41931
EUTELSAT 7 WEST A       
1 37816U 11051A   25326.37104074 -.00000038  00000+0  00000+0 0  9997
2 37816   0.0754  27.0346 0005944 192.7647 328.1056  1.00272793 51803
EUTELSAT 16A            
1 37836U 11057A   25326.51822059  .00000125  00000+0  00000+0 0  9997
2 37836   0.0608 357.0839 0005964 251.2031  16.0481  1.00269470  5257
